NORAD_CAT_ID,OBJECT_NAME,OBJECT_TYPE,EPOCH,MEAN_MOTION,ECCENTRICITY,INCLINATION,RA_OF_ASC_NODE,ARG_OF_PERICENTER,MEAN_ANOMALY,BSTAR,MEAN_MOTION_DOT,MEAN_MOTION_DDOT,TLE_LINE0,TLE_LINE1,TLE_LINE2,SEMIMAJOR_AXIS,PERIOD,APOGEE,PERIGEE,DECAYED
50851.0,STARLINK-3314,PAYLOAD,2022-07-13 07:41:17,15.08858717,0.0002338,53.2197,53.8303,69.1111,291.0131,0.00019801,2.866e-05,0.0,0 STARLINK-3314,1 50851U 22001BA  22194.32034538  .00002866  00000-0  19801-3 0  9994,2 50851  53.2197  53.8303 0002338  69.1111 291.0131 15.08858717 28675,6917.823,95.436,541.306,538.071,0.0
50851.0,STARLINK-3314,PAYLOAD,2022-07-13 20:24:23,15.08845986,0.0002125,53.2209,51.4526,71.3207,288.8016,-2.5972e-05,-7.02e-06,0.0,0 STARLINK-3314,1 50851U 22001BA  22194.85027582 -.00000702  00000-0 -25972-4 0  9999,2 50851  53.2209  51.4526 0002125  71.3207 288.8016 15.08845986 30038,6917.861999999999,95.437,541.197,538.257,0.0
50851.0,STARLINK-3314,PAYLOAD,2022-07-13 23:35:10,15.08836829,0.0002157,53.22,50.8579,66.5448,293.5771,-9.5843e-05,-1.813e-05,0.0,0 STARLINK-3314,1 50851U 22001BA  22194.98276336 -.00001813  00000-0 -95843-4 0  9994,2 50851  53.2200  50.8579 0002157  66.5448 293.5771 15.08836829 30057,6917.89,95.438,541.247,538.263,0.0
50851.0,STARLINK-3314,PAYLOAD,2022-07-14 07:32:06,15.08837118,0.0002085,53.2201,49.3709,69.675,290.4466,-0.00012789,-2.323e-05,0.0,0 STARLINK-3314,1 50851U 22001BA  22195.31396355 -.00002323  00000-0 -12789-3 0  9990,2 50851  53.2201  49.3709 0002085  69.6750 290.4466 15.08837118 28827,6917.889,95.438,541.197,538.312,0.0
50851.0,STARLINK-3314,PAYLOAD,2022-07-14 20:15:11,15.08842563,0.0002129,53.22,46.9913,68.8521,291.2698,-3.1217e-05,-7.85e-06,0.0,0 STARLINK-3314,1 50851U 22001BA  22195.84387757 -.00000785  00000-0 -31217-4 0  9992,2 50851  53.2200  46.9913 0002129  68.8521 291.2698 15.08842563 30180,6917.873000000001,95.437,541.21,538.265,0.0
50851.0,STARLINK-3314,PAYLOAD,2022-07-15 13:44:24,15.08847055,0.0002114,53.2193,43.7199,68.3299,291.7918,0.00010031,1.309e-05,0.0,0 STARLINK-3314,1 50851U 22001BA  22196.57251143  .00001309  00000-0  10031-3 0  9993,2 50851  53.2193  43.7199 0002114  68.3299 291.7918 15.08847055 29014,6917.859,95.437,541.186,538.261,0.0
50851.0,STARLINK-3314,PAYLOAD,2022-07-15 20:05:57,15.0885139,0.0002041,53.2188,42.5312,67.4623,292.6585,0.00049,7.521e-05,0.0,0 STARLINK-3314,1 50851U 22001BA  22196.83747271  .00007521  00000-0  49000-3 0  9994,2 50851  53.2188  42.5312 0002041  67.4623 292.6585 15.08851390 29053,6917.846,95.437,541.123,538.299,0.0
50851.0,STARLINK-3314,PAYLOAD,2022-07-15 23:16:44,15.08845065,0.0001969,53.2188,41.9362,67.628,292.4921,0.00033592,5.063e-05,0.0,0 STARLINK-3314,1 50851U 22001BA  22196.96995470  .00005063  00000-0  33592-3 0  9992,2 50851  53.2188  41.9362 0001969  67.6280 292.4921 15.08845065 30359,6917.865,95.437,541.092,538.368,0.0
50851.0,STARLINK-3314,PAYLOAD,2022-07-16 07:13:39,15.08842661,0.0001884,53.2184,40.4492,67.5106,292.6086,0.00027192,4.042e-05,0.0,0 STARLINK-3314,1 50851U 22001BA  22197.30115554  .00004042  00000-0  27192-3 0  9993,2 50851  53.2184  40.4492 0001884  67.5106 292.6086 15.08842661 29121,6917.871999999999,95.437,541.0409999999998,538.434,0.0
50851.0,STARLINK-3314,PAYLOAD,2022-07-16 19:56:44,15.08840277,0.0001873,53.2191,38.0702,67.2164,292.9026,7.5287e-05,9.1e-06,0.0,0 STARLINK-3314,1 50851U 22001BA  22197.83107606  .00000910  00000-0  75287-4 0  9999,2 50851  53.2191  38.0702 0001873  67.2164 292.9026 15.08840277 30484,6917.88,95.438,541.04,538.4490000000002,0.0
50851.0,STARLINK-3314,PAYLOAD,2022-07-17 13:25:59,15.08846212,0.0001867,53.2195,34.7992,67.8909,292.2281,0.00012227,1.659e-05,0.0,0 STARLINK-3314,1 50851U 22001BA  22198.55971299  .00001659  00000-0  12227-3 0  9991,2 50851  53.2195  34.7992 0001867  67.8909 292.2281 15.08846212 29319,6917.861,95.437,541.018,538.435,0.0
50851.0,STARLINK-3314,PAYLOAD,2022-07-17 19:47:32,15.08838766,0.0001802,53.2196,33.6097,67.7273,292.3911,-6.3341e-05,-1.296e-05,0.0,0 STARLINK-3314,1 50851U 22001BA  22198.82467596 -.00001296  00000-0 -63341-4 0  9994,2 50851  53.2196  33.6097 0001802  67.7273 292.3911 15.08838766 29356,6917.884,95.438,540.996,538.503,0.0
50851.0,STARLINK-3314,PAYLOAD,2022-07-18 00:33:41,15.08843588,0.00018,53.2204,32.718,68.6962,291.4222,-1.8859e-05,-5.88e-06,0.0,0 STARLINK-3314,1 50851U 22001BA  22199.02339467 -.00000588  00000-0 -18859-4 0  9999,2 50851  53.2204  32.7180 0001800  68.6962 291.4222 15.08843588 30661,6917.869000000002,95.437,540.98,538.489,0.0
50851.0,STARLINK-3314,PAYLOAD,2022-07-18 18:02:56,15.08835914,0.0001571999999999,53.2205,29.4469,68.8293,291.2867,5.4197e-05,5.75e-06,0.0,0 STARLINK-3314,1 50851U 22001BA  22199.75203850  .00000575  00000-0  54197-4 0  9994,2 50851  53.2205  29.4469 0001572  68.8293 291.2867 15.08835914 30779,6917.893,95.438,540.845,538.67,0.0
50851.0,STARLINK-3314,PAYLOAD,2022-07-19 05:10:37,15.08840651,0.0001605,53.2205,27.3654,66.622,293.494,9.0008e-05,1.145e-05,0.0,0 STARLINK-3314,1 50851U 22001BA  22200.21571568  .00001145  00000-0  90008-4 0  9997,2 50851  53.2205  27.3654 0001605  66.6220 293.4940 15.08840651 29560,6917.878000000002,95.438,540.854,538.633,0.0
50851.0,STARLINK-3314,PAYLOAD,2022-07-19 21:04:29,15.08838541,0.0001431999999999,53.2203,24.3917,63.681,296.4329,0.00012175,1.65e-05,0.0,0 STARLINK-3314,1 50851U 22001BA  22200.87811602  .00001650  00000-0  12175-3 0  9994,2 50851  53.2203  24.3917 0001432  63.6810 296.4329 15.08838541 30940,6917.885,95.438,540.74,538.759,0.0
50851.0,STARLINK-3314,PAYLOAD,2022-07-20 05:01:24,15.08844355,0.0001504,53.2205,22.9048,59.4455,300.6686,0.00012743,1.741e-05,0.0,0 STARLINK-3314,1 50851U 22001BA  22201.20931262  .00001741  00000-0  12743-3 0  9999,2 50851  53.2205  22.9048 0001504  59.4455 300.6686 15.08844355 29716,6917.8669999999975,95.437,540.773,538.692,0.0
50851.0,STARLINK-3314,PAYLOAD,2022-07-20 20:55:16,15.08840157,0.0001459,53.2203,19.9318,62.5683,297.5458,0.00012381,1.683e-05,0.0,0 STARLINK-3314,1 50851U 22001BA  22201.87171431  .00001683  00000-0  12381-3 0  9999,2 50851  53.2203  19.9318 0001459  62.5683 297.5458 15.08840157 29815,6917.88,95.438,540.754,538.736,0.0
50851.0,STARLINK-3314,PAYLOAD,2022-07-20 22:30:39,15.08841124,0.0001433,53.2203,19.6343,61.3751,298.7385,0.00012204,1.655e-05,0.0,0 STARLINK-3314,1 50851U 22001BA  22201.93795368  .00001655  00000-0  12204-3 0  9990,2 50851  53.2203  19.6343 0001433  61.3751 298.7385 15.08841124 31107,6917.877,95.437,540.7330000000002,538.751,0.0
50851.0,STARLINK-3314,PAYLOAD,2022-07-21 12:49:08,15.08830996,0.0001416,53.2207,16.9577,64.697,295.4169,-3.84e-05,-8.99e-06,0.0,0 STARLINK-3314,1 50851U 22001BA  22202.53412692 -.00000899  00000-0 -38400-4 0  9991,2 50851  53.2207  16.9577 0001416  64.6970 295.4169 15.08830996 31198,6917.908,95.438,540.752,538.793,0.0
50851.0,STARLINK-3314,PAYLOAD,2022-07-21 20:46:04,15.08827551,0.0001396999999999,53.2205,15.4711,62.2365,297.8769,-0.000128,-2.324e-05,0.0,0 STARLINK-3314,1 50851U 22001BA  22202.86533328 -.00002324  00000-0 -12800-3 0  9997,2 50851  53.2205  15.4711 0001397  62.2365 297.8769 15.08827551 29967,6917.918000000002,95.438,540.75,538.817,0.0
50851.0,STARLINK-3314,PAYLOAD,2022-07-22 04:43:00,15.08828059,0.0001388,53.2203,13.9846,61.0088,299.1043,-3.321e-05,-8.16e-06,0.0,0 STARLINK-3314,1 50851U 22001BA  22203.19653367 -.00000816  00000-0 -33210-4 0  9993,2 50851  53.2203  13.9846 0001388  61.0088 299.1043 15.08828059 30018,6917.917,95.438,540.742,538.822,0.0
50851.0,STARLINK-3314,PAYLOAD,2022-07-22 11:04:33,15.08829243,0.0001361999999999,53.2205,12.7951,59.8086,300.3041,-1.6042e-05,-5.43e-06,0.0,0 STARLINK-3314,1 50851U 22001BA  22203.46149421 -.00000543  00000-0 -16042-4 0  9995,2 50851  53.2205  12.7951 0001362  59.8086 300.3041 15.08829243 30052,6917.913000000001,95.438,540.72,538.836,0.0
50851.0,STARLINK-3314,PAYLOAD,2022-07-23 04:33:47,15.088406400000002,0.0001559,53.2209,9.5247,62.4299,297.6852,0.00011148,1.487e-05,0.0,0 STARLINK-3314,1 50851U 22001BA  22204.19012755  .00001487  00000-0  11148-3 0  9992,2 50851  53.2209   9.5247 0001559  62.4299 297.6852 15.08840640 31448,6917.878000000002,95.438,540.822,538.665,0.0
50851.0,STARLINK-3314,PAYLOAD,2022-07-23 10:55:19,15.08838013,0.0001536,53.2207,8.3352,62.1355,297.9793,0.00022601,3.311e-05,0.0,0 STARLINK-3314,1 50851U 22001BA  22204.45508825  .00003311  00000-0  22601-3 0  9993,2 50851  53.2207   8.3352 0001536  62.1355 297.9793 15.08838013 30206,6917.886,95.438,540.814,538.689,0.0
50851.0,STARLINK-3314,PAYLOAD,2022-07-23 17:16:52,15.08840832,0.0001613,53.2199,7.1484,38.1221,321.9885,0.00046997,7.2e-05,0.0,0 STARLINK-3314,1 50851U 22001BA  22204.72005450  .00007200  00000-0  46997-3 0  9994,2 50851  53.2199   7.1484 0001613  38.1221 321.9885 15.08840832 30246,6917.878000000002,95.438,540.859,538.627,0.0
50851.0,STARLINK-3314,PAYLOAD,2022-07-23 20:27:39,15.08834128,0.0001631999999999,53.2194,6.5515,62.0034,298.1124,0.00027341,4.065e-05,0.0,0 STARLINK-3314,1 50851U 22001BA  22204.85253839  .00004065  00000-0  27341-3 0  9992,2 50851  53.2194   6.5515 0001632  62.0034 298.1124 15.08834128 31544,6917.898,95.438,540.8919999999998,538.634,0.0
50851.0,STARLINK-3314,PAYLOAD,2022-07-24 10:46:07,15.08847196,0.0001781999999999,53.2199,3.8753,67.4862,292.6318,0.00028827,4.304e-05,0.0,0 STARLINK-3314,1 50851U 22001BA  22205.44869336  .00004304  00000-0  28827-3 0  9999,2 50851  53.2199   3.8753 0001782  67.4862 292.6318 15.08847196 30358,6917.858,95.437,540.956,538.491,0.0
50851.0,STARLINK-3314,PAYLOAD,2022-07-24 13:56:53,15.08850356,0.0001781,53.2205,3.2808,67.6504,292.4677,0.00032086,4.824e-05,0.0,0 STARLINK-3314,1 50851U 22001BA  22205.58117184  .00004824  00000-0  32086-3 0  9990,2 50851  53.2205   3.2808 0001781  67.6504 292.4677 15.08850356 31657,6917.849,95.437,540.946,538.482,0.0
